SL-8 R/B                
1 15483U 85006B   26169.49835488  .00000163  00000+0  62649-4 0  9993
2 15483  74.0460  75.6514 0018904 322.5734 210.4170 14.37835508168510
SL-12 R/B(2)            
1 15772U 85042D   26169.21738310  .00000068  00000+0  51860-4 0  9997
2 15772  71.1076 235.3399 0036379 326.1876  95.1820 14.22006194128680
SL-14 R/B               
1 15945U 85069B   26169.58277289  .00000354  00000+0  37202-4 0  9993
2 15945  82.5272 290.0532 0017890 214.2821 145.7242 14.86516415187820
SL-16 R/B               
1 16182U 85097B   26169.61514241 -.00000018  00000+0  14721-4 0  9993
2 16182  71.0034 288.0714 0005391 108.3148 342.9860 14.16610068101522
SL-14 R/B               
1 16496U 86006B   26169.39741224  .00000454  00000+0  45546-4 0  9992
2 16496  82.5261 164.9743 0074905 299.3938  59.9814 14.86946673164173
COSMOS 1743             
1 16719U 86034A   26169.42393657  .00037795  00000+0  35406-3 0  9999
2 16719  82.5283 327.4165 0003995 265.3192  94.7612 15.67035980195981
SL-14 R/B               
1 16792U 86046B   26169.43256129  .00000333  00000+0  35504-4 0  9994
2 16792  82.4817 344.9984 0021620 254.0208 105.8626 14.85671804141367
SL-14 R/B               
1 16882U 86055B   26169.62712617  .00000303  00000+0  32013-4 0  9993
2 16882  82.5203  31.7791 0018922   2.9989  59.7096 14.85723962134353
AJISAI (EGS)            
1 16908U 86061A   26169.59020006 -.00000113  00000+0 -11223-3 0  9999
2 16908  50.0067 143.0804 0011204 184.1266 286.5889 12.44516780480567
SL-14 R/B               
1 17567U 87024B   26169.49669761  .00000292  00000+0  30389-4 0  9998
2 17567  82.5279 358.0196 0016755 288.5321  71.4075 14.86213916103106
COSMOS 1833             
1 17589U 87027A   26169.59488100  .00000331  00000+0  20270-3 0  9993
2 17589  70.9182 113.9091 0022844  52.7685 307.5516 14.13051120 24579
SL-16 R/B               
1 17590U 87027B   26169.41605066 -.00000178  00000+0 -64383-4 0  9993
2 17590  71.0032  64.2393 0006565 310.8386  49.2168 14.17171491 29619
SL-14 R/B               
1 17912U 87038B   26169.61086668  .00000257  00000+0  26962-4 0  9993
2 17912  82.5007 201.7313 0019023 186.4435 173.6540 14.85445872 94217
COSMOS 1844             
1 17973U 87041A   26169.45068340 -.00000137  00000+0 -45973-4 0  9995
2 17973  70.8966 181.6420 0032832 233.7300 126.0787 14.14567637 17837
SL-14 R/B               
1 18153U 87055B   26169.50274660  .00000316  00000+0  33427-4 0  9999
2 18153  82.4995 253.9890 0021604  43.5404 316.7513 14.85711826 84906
COSMOS 1867             
1 18187U 87060A   26169.32086252 -.00000055  00000+0  17106-4 0  9997
2 18187  65.0115  24.8837 0016553 282.1678  77.7552 14.31515833 34342
SL-14 R/B               
1 18749U 88001B   26169.30278132  .00000329  00000+0  35153-4 0  9990
2 18749  82.5133 100.7241 0016442 265.5221  94.4116 14.85610275 56968
COSMOS 1933             
1 18958U 88020A   26169.35526221  .00003245  00000+0  15491-3 0  9995
2 18958  82.5123 151.2785 0003703 181.3300 178.7925 15.18719683 65506
SL-3 R/B                
1 19046U 88032B   26169.55902175  .00003197  00000+0  14701-3 0  9994
2 19046  97.5257 152.5983 0023894 239.8698 120.0169 15.20848487 67437
SL-16 R/B               
1 19120U 88039B   26169.38917781  .00000073  00000+0  57211-4 0  9998
2 19120  71.0136 215.6166 0022183 191.3866 168.6761 14.19629724972671
COSMOS 1953             
1 19210U 88050A   26169.19598575  .00005569  00000+0  19032-3 0  9999
2 19210  82.5074  57.0174 0012211 123.2338 237.0074 15.29990101 53147
SL-8 R/B                
1 19257U 88053B   26169.59493377  .00000143  00000+0  54748-4 0  9998
2 19257  74.0482 286.4622 0019169  81.2802 289.8128 14.38967886991117
COSMOS 1975             
1 19573U 88093A   26169.07036190  .00005339  00000+0  18621-3 0  9993
2 19573  82.5186  16.8133 0011420 168.5053 191.6450 15.29334125 34744
SL-14 R/B               
1 19574U 88093B   26169.34409814  .00000365  00000+0  39027-4 0  9999
2 19574  82.5312 307.5584 0022055  66.8825 321.2492 14.85742659 15965
SL-16 R/B               
1 19650U 88102B   26169.62984185 -.00000081  00000+0 -16826-4 0  9994
2 19650  71.0000 299.1031 0015707 223.3072 136.6817 14.16164049941186
INTERCOSMOS 24          
1 20261U 89080A   26169.60495668  .00000733  00000+0  20703-3 0  9991
2 20261  82.6064  38.7227 1188357  58.6192 312.5689 12.59664138679508
SL-14 R/B               
1 20262U 89080C   26169.52225532  .00000224  00000+0  67168-4 0  9996
2 20262  82.5934 108.4500 1228696 314.3461  36.3062 12.50571369672755
DELTA 1 R/B             
1 20323U 89089B   26169.46079786  .00000223  00000+0  63519-4 0  9999
2 20323  97.0636   0.8152 0069360 162.9794 197.3754 14.50731976910347
ARIANE 40 R/B           
1 20443U 90005H   26169.43445900  .00000192  00000+0  74570-4 0  9998
2 20443  98.2959 227.0118 0008833 260.0822  99.9370 14.39928019907302
DELTA 2 R/B(1)          
1 20453U 90008B   26169.46310562  .00074044  00000+0  54410-3 0  9997
2 20453  35.5987 227.1217 0064809 126.7504 233.9209 15.68997573941908
