OBJECT_NAME,OBJECT_ID,EPOCH,MEAN_MOTION,ECCENTRICITY,INCLINATION,RA_OF_ASC_NODE,ARG_OF_PERICENTER,MEAN_ANOMALY,EPHEMERIS_TYPE,CLASSIFICATION_TYPE,NORAD_CAT_ID,ELEMENT_SET_NO,REV_AT_EPOCH,BSTAR,MEAN_MOTION_DOT,MEAN_MOTION_DDOT
SL-8 R/B,1985-006B,2026-06-18T11:57:37.861632,14.37835508,.00189047,74.0460,75.6514,322.5734,210.4170,0,U,15483,999,16851,.62648543E-4,.163E-5,0
SL-12 R/B(2),1985-042D,2026-06-18T05:13:01.899840,14.22006194,.00363792,71.1076,235.3399,326.1876,95.1820,0,U,15772,999,12868,.51859541E-4,.68E-6,0
SL-14 R/B,1985-069B,2026-06-18T13:59:11.577696,14.86516415,.00178905,82.5272,290.0532,214.2821,145.7242,0,U,15945,999,18782,.37202338E-4,.354E-5,0
SL-16 R/B,1985-097B,2026-06-18T14:45:48.304224,14.16610068,.00053912,71.0034,288.0714,108.3148,342.9860,0,U,16182,999,10152,.14721244E-4,-.18E-6,0
SL-14 R/B,1986-006B,2026-06-18T09:32:16.417536,14.86946673,.0074905,82.5261,164.9743,299.3938,59.9814,0,U,16496,999,16417,.45546259E-4,.454E-5,0
COSMOS 1743,1986-034A,2026-06-18T10:10:28.119648,15.67035980,.00039955,82.5283,327.4165,265.3192,94.7612,0,U,16719,999,19598,.3540569E-3,.37795E-3,0
SL-14 R/B,1986-046B,2026-06-18T10:22:53.295456,14.85671804,.00216204,82.4817,344.9984,254.0208,105.8626,0,U,16792,999,14136,.35504045E-4,.333E-5,0
SL-14 R/B,1986-055B,2026-06-18T15:03:03.701088,14.85723962,.00189228,82.5203,31.7791,2.9989,59.7096,0,U,16882,999,13435,.32012851E-4,.303E-5,0
AJISAI (EGS),1986-061A,2026-06-18T14:09:53.285184,12.44516780,.00112042,50.0067,143.0804,184.1266,286.5889,0,U,16908,999,48056,-.11222523E-3,-.113E-5,0
SL-14 R/B,1987-024B,2026-06-18T11:55:14.673504,14.86213916,.00167555,82.5279,358.0196,288.5321,71.4075,0,U,17567,999,10310,.30388651E-4,.292E-5,0
COSMOS 1833,1987-027A,2026-06-18T14:16:37.718400,14.13051120,.00228448,70.9182,113.9091,52.7685,307.5516,0,U,17589,999,2457,.20269573E-3,.331E-5,0
SL-16 R/B,1987-027B,2026-06-18T09:59:06.777024,14.17171491,.00065656,71.0032,64.2393,310.8386,49.2168,0,U,17590,999,2961,-.64382689E-4,-.178E-5,0
SL-14 R/B,1987-038B,2026-06-18T14:39:38.881152,14.85445872,.00190233,82.5007,201.7313,186.4435,173.6540,0,U,17912,999,9421,.26961796E-4,.257E-5,0
COSMOS 1844,1987-041A,2026-06-18T10:48:59.045760,14.14567637,.0032832,70.8966,181.6420,233.7300,126.0787,0,U,17973,999,1783,-.45972744E-4,-.137E-5,0
SL-14 R/B,1987-055B,2026-06-18T12:03:57.306240,14.85711826,.00216042,82.4995,253.9890,43.5404,316.7513,0,U,18153,999,8490,.33427114E-4,.316E-5,0
COSMOS 1867,1987-060A,2026-06-18T07:42:02.521728,14.31515833,.00165535,65.0115,24.8837,282.1678,77.7552,0,U,18187,999,3434,.17105938E-4,-.55E-6,0
SL-14 R/B,1988-001B,2026-06-18T07:16:00.306048,14.85610275,.00164424,82.5133,100.7241,265.5221,94.4116,0,U,18749,999,5696,.35152573E-4,.329E-5,0
COSMOS 1933,1988-020A,2026-06-18T08:31:34.654944,15.18719683,.00037034,82.5123,151.2785,181.3300,178.7925,0,U,18958,999,6550,.15490519E-3,.3245E-4,0
SL-3 R/B,1988-032B,2026-06-18T13:24:59.479200,15.20848487,.00238945,97.5257,152.5983,239.8698,120.0169,0,U,19046,999,6743,.1470106E-3,.3197E-4,0
SL-16 R/B,1988-039B,2026-06-18T09:20:24.962784,14.19629724,.00221839,71.0136,215.6166,191.3866,168.6761,0,U,19120,999,97267,.57210907E-4,.73E-6,0
COSMOS 1953,1988-050A,2026-06-18T04:42:13.168800,15.29990101,.00122113,82.5074,57.0174,123.2338,237.0074,0,U,19210,999,5314,.1903198E-3,.5569E-4,0
SL-8 R/B,1988-053B,2026-06-18T14:16:42.277728,14.38967886,.00191694,74.0482,286.4622,81.2802,289.8128,0,U,19257,999,99111,.54747742E-4,.143E-5,0
COSMOS 1975,1988-093A,2026-06-18T01:41:19.268160,15.29334125,.001142,82.5186,16.8133,168.5053,191.6450,0,U,19573,999,3474,.18621056E-3,.5339E-4,0
SL-14 R/B,1988-093B,2026-06-18T08:15:30.079296,14.85742659,.00220555,82.5312,307.5584,66.8825,321.2492,0,U,19574,999,1596,.39026725E-4,.365E-5,0
SL-16 R/B,1988-102B,2026-06-18T15:06:58.335840,14.16164049,.00157073,71.0000,299.1031,223.3072,136.6817,0,U,19650,999,94118,-.16825676E-4,-.81E-6,0
INTERCOSMOS 24,1989-080A,2026-06-18T14:31:08.257152,12.59664138,.11883578,82.6064,38.7227,58.6192,312.5689,0,U,20261,999,67950,.20702526E-3,.733E-5,0
SL-14 R/B,1989-080C,2026-06-18T12:32:02.859648,12.50571369,.12286968,82.5934,108.4500,314.3461,36.3062,0,U,20262,999,67275,.67168483E-4,.224E-5,0
DELTA 1 R/B,1989-089B,2026-06-18T11:03:32.935104,14.50731976,.00693603,97.0636,0.8152,162.9794,197.3754,0,U,20323,999,91034,.63518686E-4,.223E-5,0
ARIANE 40 R/B,1990-005H,2026-06-18T10:25:37.257600,14.39928019,.00088334,98.2959,227.0118,260.0822,99.9370,0,U,20443,999,90730,.74570446E-4,.192E-5,0
DELTA 2 R/B(1),1990-008B,2026-06-18T11:06:52.325568,15.68997573,.00648098,35.5987,227.1217,126.7504,233.9209,0,U,20453,999,94190,.54409768E-3,.74044E-3,0
